OBJECT B                
1 51825U 22019B   25012.91079301  .00018484  00000+0  59554-3 0  9990
2 51825  97.4063  88.8166 0011147 213.6420 146.4115 15.32180587159222
